[{"OBJECT_NAME":"ONEWEB-0044","OBJECT_ID":"2020-008V","EPOCH":"2025-10-11T20:11:17.302272","MEAN_MOTION":13.10369009,"ECCENTRICITY":0.00014781,"INCLINATION":87.8744,"RA_OF_ASC_NODE":85.7716,"ARG_OF_PERICENTER":84.3678,"MEAN_ANOMALY":275.7618,"EPHEMERIS_TYPE":0,"CLASSIFICATION_TYPE":"U","NORAD_CAT_ID":45150,"ELEMENT_SET_NO":999,"REV_AT_EPOCH":27595,"BSTAR":0.00043080173,"MEAN_MOTION_DOT":1.63e-6,"MEAN_MOTION_DDOT":0},{"OBJECT_NAME":"ONEWEB-0045","OBJECT_ID":"2020-008W","EPOCH":"2025-10-12T02:56:52.699488","MEAN_MOTION":13.11414834,"ECCENTRICITY":0.00014786,"INCLINATION":87.8828,"RA_OF_ASC_NODE":70.4413,"ARG_OF_PERICENTER":96.5919,"MEAN_ANOMALY":263.5378,"EPHEMERIS_TYPE":0,"CLASSIFICATION_TYPE":"U","NORAD_CAT_ID":45151,"ELEMENT_SET_NO":999,"REV_AT_EPOCH":27789,"BSTAR":-0.0012345211,"MEAN_MOTION_DOT":-4.25e-6,"MEAN_MOTION_DDOT":0},{"OBJECT_NAME":"ONEWEB-0047","OBJECT_ID":"2020-008X","EPOCH":"2025-10-11T21:51:40.461408","MEAN_MOTION":13.10413255,"ECCENTRICITY":7.459e-5,"INCLINATION":87.8744,"RA_OF_ASC_NODE":85.7682,"ARG_OF_PERICENTER":57.1222,"MEAN_ANOMALY":302.9977,"EPHEMERIS_TYPE":0,"CLASSIFICATION_TYPE":"U","NORAD_CAT_ID":45152,"ELEMENT_SET_NO":999,"REV_AT_EPOCH":27568,"BSTAR":-0.024873622,"MEAN_MOTION_DOT":-8.667e-5,"MEAN_MOTION_DDOT":0},{"OBJECT_NAME":"ONEWEB-0048","OBJECT_ID":"2020-008Y","EPOCH":"2025-10-12T05:04:20.763552","MEAN_MOTION":13.10375582,"ECCENTRICITY":0.00016225,"INCLINATION":87.875,"RA_OF_ASC_NODE":85.7337,"ARG_OF_PERICENTER":92.9192,"MEAN_ANOMALY":267.2121,"EPHEMERIS_TYPE":0,"CLASSIFICATION_TYPE":"U","NORAD_CAT_ID":45153,"ELEMENT_SET_NO":999,"REV_AT_EPOCH":27533,"BSTAR":0.0018607914,"MEAN_MOTION_DOT":6.62e-6,"MEAN_MOTION_DDOT":0},{"OBJECT_NAME":"ONEWEB-0049","OBJECT_ID":"2020-008Z","EPOCH":"2025-10-12T03:17:58.333344","MEAN_MOTION":13.10371918,"ECCENTRICITY":0.00018131,"INCLINATION":87.875,"RA_OF_ASC_NODE":85.7397,"ARG_OF_PERICENTER":77.671,"MEAN_ANOMALY":282.462,"EPHEMERIS_TYPE":0,"CLASSIFICATION_TYPE":"U","NORAD_CAT_ID":45154,"ELEMENT_SET_NO":999,"REV_AT_EPOCH":27554,"BSTAR":0.0018052206,"MEAN_MOTION_DOT":6.43e-6,"MEAN_MOTION_DDOT":0},{"OBJECT_NAME":"ONEWEB-0051","OBJECT_ID":"2020-008AA","EPOCH":"2025-10-12T02:54:27.096480","MEAN_MOTION":13.11414734,"ECCENTRICITY":0.00017501,"INCLINATION":87.8802,"RA_OF_ASC_NODE":70.4743,"ARG_OF_PERICENTER":97.7873,"MEAN_ANOMALY":262.3454,"EPHEMERIS_TYPE":0,"CLASSIFICATION_TYPE":"U","NORAD_CAT_ID":45155,"ELEMENT_SET_NO":999,"REV_AT_EPOCH":27857,"BSTAR":-0.0011352593,"MEAN_MOTION_DOT":-3.9e-6,"MEAN_MOTION_DDOT":0},{"OBJECT_NAME":"ONEWEB-0052","OBJECT_ID":"2020-008AB","EPOCH":"2025-10-12T05:00:45.382176","MEAN_MOTION":13.10379356,"ECCENTRICITY":0.00018468,"INCLINATION":87.8757,"RA_OF_ASC_NODE":85.6796,"ARG_OF_PERICENTER":74.491,"MEAN_ANOMALY":285.6421,"EPHEMERIS_TYPE":0,"CLASSIFICATION_TYPE":"U","NORAD_CAT_ID":45156,"ELEMENT_SET_NO":999,"REV_AT_EPOCH":27546,"BSTAR":-0.0021431606,"MEAN_MOTION_DOT":-7.35e-6,"MEAN_MOTION_DDOT":0},{"OBJECT_NAME":"ONEWEB-0053","OBJECT_ID":"2020-008AC","EPOCH":"2025-10-12T04:35:38.555808","MEAN_MOTION":13.1037642,"ECCENTRICITY":0.00012769,"INCLINATION":87.8753,"RA_OF_ASC_NODE":85.7339,"ARG_OF_PERICENTER":93.0189,"MEAN_ANOMALY":267.1085,"EPHEMERIS_TYPE":0,"CLASSIFICATION_TYPE":"U","NORAD_CAT_ID":45157,"ELEMENT_SET_NO":999,"REV_AT_EPOCH":27543,"BSTAR":0.00039427763,"MEAN_MOTION_DOT":1.5e-6,"MEAN_MOTION_DDOT":0},{"OBJECT_NAME":"ONEWEB-0054","OBJECT_ID":"2020-008AD","EPOCH":"2025-10-11T23:55:58.539648","MEAN_MOTION":13.10369262,"ECCENTRICITY":0.00016807,"INCLINATION":87.8745,"RA_OF_ASC_NODE":85.7453,"ARG_OF_PERICENTER":91.7493,"MEAN_ANOMALY":268.3827,"EPHEMERIS_TYPE":0,"CLASSIFICATION_TYPE":"U","NORAD_CAT_ID":45158,"ELEMENT_SET_NO":999,"REV_AT_EPOCH":27552,"BSTAR":0.00011812803,"MEAN_MOTION_DOT":5.4e-7,"MEAN_MOTION_DDOT":0},{"OBJECT_NAME":"ONEWEB-0056","OBJECT_ID":"2020-008AE","EPOCH":"2025-10-12T04:58:24.321216","MEAN_MOTION":13.10375272,"ECCENTRICITY":0.00017988,"INCLINATION":87.8747,"RA_OF_ASC_NODE":85.7015,"ARG_OF_PERICENTER":89.0557,"MEAN_ANOMALY":271.0777,"EPHEMERIS_TYPE":0,"CLASSIFICATION_TYPE":"U","NORAD_CAT_ID":45159,"ELEMENT_SET_NO":999,"REV_AT_EPOCH":27570,"BSTAR":0.0017840227,"MEAN_MOTION_DOT":6.35e-6,"MEAN_MOTION_DDOT":0},{"OBJECT_NAME":"ONEWEB-0057","OBJECT_ID":"2020-008AF","EPOCH":"2025-10-12T05:09:07.382592","MEAN_MOTION":13.10371107,"ECCENTRICITY":0.00015169,"INCLINATION":87.8747,"RA_OF_ASC_NODE":85.7132,"ARG_OF_PERICENTER":85.2679,"MEAN_ANOMALY":274.8622,"EPHEMERIS_TYPE":0,"CLASSIFICATION_TYPE":"U","NORAD_CAT_ID":45160,"ELEMENT_SET_NO":999,"REV_AT_EPOCH":27587,"BSTAR":0.0018658738,"MEAN_MOTION_DOT":6.64e-6,"MEAN_MOTION_DDOT":0},{"OBJECT_NAME":"ONEWEB-0058","OBJECT_ID":"2020-008AG","EPOCH":"2025-10-12T04:50:12.830496","MEAN_MOTION":13.10372267,"ECCENTRICITY":0.00016992,"INCLINATION":87.8752,"RA_OF_ASC_NODE":85.7262,"ARG_OF_PERICENTER":102.8089,"MEAN_ANOMALY":257.3228,"EPHEMERIS_TYPE":0,"CLASSIFICATION_TYPE":"U","NORAD_CAT_ID":45161,"ELEMENT_SET_NO":999,"REV_AT_EPOCH":27594,"BSTAR":0.0016291889,"MEAN_MOTION_DOT":5.81e-6,"MEAN_MOTION_DDOT":0},{"OBJECT_NAME":"ONEWEB-0059","OBJECT_ID":"2020-008AH","EPOCH":"2025-10-11T17:45:28.829664","MEAN_MOTION":13.10376111,"ECCENTRICITY":0.00015797,"INCLINATION":87.8754,"RA_OF_ASC_NODE":85.8187,"ARG_OF_PERICENTER":95.417,"MEAN_ANOMALY":264.7138,"EPHEMERIS_TYPE":0,"CLASSIFICATION_TYPE":"U","NORAD_CAT_ID":45162,"ELEMENT_SET_NO":999,"REV_AT_EPOCH":27578,"BSTAR":0.0012372712,"MEAN_MOTION_DOT":4.45e-6,"MEAN_MOTION_DDOT":0},{"OBJECT_NAME":"ONEWEB-0062","OBJECT_ID":"2020-008AJ","EPOCH":"2025-10-11T20:12:29.070432","MEAN_MOTION":13.10369228,"ECCENTRICITY":0.00019003,"INCLINATION":87.8744,"RA_OF_ASC_NODE":85.7756,"ARG_OF_PERICENTER":100.7175,"MEAN_ANOMALY":259.4167,"EPHEMERIS_TYPE":0,"CLASSIFICATION_TYPE":"U","NORAD_CAT_ID":45163,"ELEMENT_SET_NO":999,"REV_AT_EPOCH":27566,"BSTAR":0.00022549882,"MEAN_MOTION_DOT":9.1e-7,"MEAN_MOTION_DDOT":0},{"OBJECT_NAME":"ONEWEB-0065","OBJECT_ID":"2020-008AK","EPOCH":"2025-10-12T04:53:33.334656","MEAN_MOTION":13.10379524,"ECCENTRICITY":0.00017363,"INCLINATION":87.8751,"RA_OF_ASC_NODE":85.7292,"ARG_OF_PERICENTER":79.1996,"MEAN_ANOMALY":280.9327,"EPHEMERIS_TYPE":0,"CLASSIFICATION_TYPE":"U","NORAD_CAT_ID":45164,"ELEMENT_SET_NO":999,"REV_AT_EPOCH":27540,"BSTAR":0.0017685854,"MEAN_MOTION_DOT":6.3e-6,"MEAN_MOTION_DDOT":0},{"OBJECT_NAME":"ONEWEB-0066","OBJECT_ID":"2020-020A","EPOCH":"2025-10-12T08:02:05.309088","MEAN_MOTION":13.11415787,"ECCENTRICITY":0.00013394,"INCLINATION":87.882,"RA_OF_ASC_NODE":70.4228,"ARG_OF_PERICENTER":94.6578,"MEAN_ANOMALY":265.4703,"EPHEMERIS_TYPE":0,"CLASSIFICATION_TYPE":"U","NORAD_CAT_ID":45424,"ELEMENT_SET_NO":999,"REV_AT_EPOCH":27019,"BSTAR":0.00055944673,"MEAN_MOTION_DOT":2.11e-6,"MEAN_MOTION_DDOT":0},{"OBJECT_NAME":"ONEWEB-0067","OBJECT_ID":"2020-020B","EPOCH":"2025-10-11T20:06:56.464992","MEAN_MOTION":13.11417768,"ECCENTRICITY":0.00014621,"INCLINATION":87.8817,"RA_OF_ASC_NODE":70.425,"ARG_OF_PERICENTER":90.8149,"MEAN_ANOMALY":269.3147,"EPHEMERIS_TYPE":0,"CLASSIFICATION_TYPE":"U","NORAD_CAT_ID":45425,"ELEMENT_SET_NO":999,"REV_AT_EPOCH":27018,"BSTAR":4.2736972e-5,"MEAN_MOTION_DOT":2.8e-7,"MEAN_MOTION_DDOT":0},{"OBJECT_NAME":"ONEWEB-0080","OBJECT_ID":"2020-020C","EPOCH":"2025-10-12T07:19:21.720864","MEAN_MOTION":13.11420841,"ECCENTRICITY":0.00015513,"INCLINATION":87.8812,"RA_OF_ASC_NODE":70.4294,"ARG_OF_PERICENTER":106.2864,"MEAN_ANOMALY":253.8434,"EPHEMERIS_TYPE":0,"CLASSIFICATION_TYPE":"U","NORAD_CAT_ID":45426,"ELEMENT_SET_NO":999,"REV_AT_EPOCH":27021,"BSTAR":-0.00015697074,"MEAN_MOTION_DOT":-4.3e-7,"MEAN_MOTION_DDOT":0},{"OBJECT_NAME":"ONEWEB-0090","OBJECT_ID":"2020-020D","EPOCH":"2025-10-12T07:47:27.336480","MEAN_MOTION":13.1141623,"ECCENTRICITY":0.00016711,"INCLINATION":87.8822,"RA_OF_ASC_NODE":70.4268,"ARG_OF_PERICENTER":96.6576,"MEAN_ANOMALY":263.4743,"EPHEMERIS_TYPE":0,"CLASSIFICATION_TYPE":"U","NORAD_CAT_ID":45427,"ELEMENT_SET_NO":999,"REV_AT_EPOCH":27018,"BSTAR":0.0013478389,"MEAN_MOTION_DOT":4.9e-6,"MEAN_MOTION_DDOT":0},{"OBJECT_NAME":"ONEWEB-0061","OBJECT_ID":"2020-020E","EPOCH":"2025-10-12T03:03:59.531040","MEAN_MOTION":13.11435525,"ECCENTRICITY":0.00016837,"INCLINATION":87.8835,"RA_OF_ASC_NODE":70.4472,"ARG_OF_PERICENTER":95.8277,"MEAN_ANOMALY":264.3043,"EPHEMERIS_TYPE":0,"CLASSIFICATION_TYPE":"U","NORAD_CAT_ID":45428,"ELEMENT_SET_NO":999,"REV_AT_EPOCH":27011,"BSTAR":0.0032396813,"MEAN_MOTION_DOT":1.161e-5,"MEAN_MOTION_DDOT":0},{"OBJECT_NAME":"ONEWEB-0081","OBJECT_ID":"2020-020F","EPOCH":"2025-10-12T08:06:58.223232","MEAN_MOTION":13.11415497,"ECCENTRICITY":0.0001381,"INCLINATION":87.8817,"RA_OF_ASC_NODE":70.4225,"ARG_OF_PERICENTER":94.172,"MEAN_ANOMALY":265.9566,"EPHEMERIS_TYPE":0,"CLASSIFICATION_TYPE":"U","NORAD_CAT_ID":45429,"ELEMENT_SET_NO":999,"REV_AT_EPOCH":27025,"BSTAR":0.00023439664,"MEAN_MOTION_DOT":9.6e-7,"MEAN_MOTION_DDOT":0},{"OBJECT_NAME":"ONEWEB-0069","OBJECT_ID":"2020-020G","EPOCH":"2025-10-12T07:51:07.145856","MEAN_MOTION":13.11415482,"ECCENTRICITY":0.00015589,"INCLINATION":87.8818,"RA_OF_ASC_NODE":70.4207,"ARG_OF_PERICENTER":92.5302,"MEAN_ANOMALY":267.6005,"EPHEMERIS_TYPE":0,"CLASSIFICATION_TYPE":"U","NORAD_CAT_ID":45430,"ELEMENT_SET_NO":999,"REV_AT_EPOCH":27018,"BSTAR":0.0011070734,"MEAN_MOTION_DOT":4.05e-6,"MEAN_MOTION_DDOT":0},{"OBJECT_NAME":"ONEWEB-0031","OBJECT_ID":"2020-020H","EPOCH":"2025-10-11T20:11:37.081824","MEAN_MOTION":13.1141735,"ECCENTRICITY":0.0001739,"INCLINATION":87.8811,"RA_OF_ASC_NODE":70.5444,"ARG_OF_PERICENTER":99.6868,"MEAN_ANOMALY":260.4457,"EPHEMERIS_TYPE":0,"CLASSIFICATION_TYPE":"U","NORAD_CAT_ID":45431,"ELEMENT_SET_NO":999,"REV_AT_EPOCH":27010,"BSTAR":0.00018681164,"MEAN_MOTION_DOT":7.9e-7,"MEAN_MOTION_DDOT":0}]
